{"type": "FeatureCollection", "features": [ {"type": "Feature", "properties": {"norad_id": 34432, "name": "COSMOS 2251 DEB", "group": "cosmos-2251-debris", "lat": 40.62455490690965, "lon": 135.0005191507879, "alt_km": 1006.8106442129974, "timestamp": "2025-12-02T08:59:33.109065+00:00", "meta": {"OBJECT_NAME": "COSMOS 2251 DEB", "OBJECT_ID": "1993-036RZ", "EPOCH": "2025-11-30T19:28:12.273024", "MEAN_MOTION": 14.02822542, "ECCENTRICITY": 0.01832945, "INCLINATION": 73.827, "RA_OF_ASC_NODE": 123.3387, "ARG_OF_PERICENTER": 207.8109, "MEAN_ANOMALY": 223.0223, "EPHEMERIS_TYPE": 0, "CLASSIFICATION_TYPE": "U", "NORAD_CAT_ID": 34432, "ELEMENT_SET_NO": 999, "REV_AT_EPOCH": 85517, "BSTAR": 0.00099665905, "MEAN_MOTION_DOT": 1.763e-05, "MEAN_MOTION_DDOT": 0}, "tle": {"line1": "1 34432U 93036RZ  25334.81125316  .00001763  00000+0  99666-3 0  9996", "line2": "2 34432  73.8270 123.3387 0183294 207.8109 223.0223 14.02822542855176"}}, "geometry": {"type": "Point", "coordinates": [135.0005191507879, 40.62455490690965]}}, {"type": "Feature", "properties": {"norad_id": 34433, "name": "COSMOS 2251 DEB", "group": "cosmos-2251-debris", "lat": 55.24787207258146, "lon": -162.2939985873552, "alt_km": 871.3216442068742, "timestamp": "2025-12-02T08:59:33.109075+00:00", "meta": {"OBJECT_NAME": "COSMOS 2251 DEB", "OBJECT_ID": "1993-036SA", "EPOCH": "2025-12-02T00:13:13.494144", "MEAN_MOTION": 14.12772315, "ECCENTRICITY": 0.0151692, "INCLINATION": 74.0107, "RA_OF_ASC_NODE": 173.942, "ARG_OF_PERICENTER": 314.3942, "MEAN_ANOMALY": 44.4856, "EPHEMERIS_TYPE": 0, "CLASSIFICATION_TYPE": "U", "NORAD_CAT_ID": 34433, "ELEMENT_SET_NO": 999, "REV_AT_EPOCH": 85798, "BSTAR": 0.0015741, "MEAN_MOTION_DOT": 3.235e-05, "MEAN_MOTION_DDOT": 0}, "tle": {"line1": "1 34433U 93036SA  25336.00918396  .00003235  00000+0  15741-2 0  9995", "line2": "2 34433  74.0107 173.9420 0151692 314.3942  44.4856 14.12772315857985"}}, "geometry": {"type": "Point", "coordinates": [-162.2939985873552, 55.24787207258146]}}, {"type": "Feature", "properties": {"norad_id": 34434, "name": "COSMOS 2251 DEB", "group": "cosmos-2251-debris", "lat": 73.14138537092083, "lon": 98.28494222316489, "alt_km": 892.0464021686093, "timestamp": "2025-12-02T08:59:33.109085+00:00", "meta": {"OBJECT_NAME": "COSMOS 2251 DEB", "OBJECT_ID": "1993-036SB", "EPOCH": "2025-12-02T03:33:41.074848", "MEAN_MOTION": 13.89676707, "ECCENTRICITY": 0.0276624, "INCLINATION": 74.0641, "RA_OF_ASC_NODE": 28.136, "ARG_OF_PERICENTER": 167.8377, "MEAN_ANOMALY": 228.0748, "EPHEMERIS_TYPE": 0, "CLASSIFICATION_TYPE": "U", "NORAD_CAT_ID": 34434, "ELEMENT_SET_NO": 999, "REV_AT_EPOCH": 83819, "BSTAR": 0.0033362, "MEAN_MOTION_DOT": 5.545e-05, "MEAN_MOTION_DDOT": 0}, "tle": {"line1": "1 34434U 93036SB  25336.14839207  .00005545  00000+0  33362-2 0  9999", "line2": "2 34434  74.0641  28.1360 0276624 167.8377 228.0748 13.89676707838192"}}, "geometry": {"type": "Point", "coordinates": [98.28494222316489, 73.14138537092083]}}, {"type": "Feature", "properties": {"norad_id": 34446, "name": "COSMOS 2251 DEB", "group": "cosmos-2251-debris", "lat": -31.100313350111914, "lon": -93.34194764111739, "alt_km": 696.9316992920549, "timestamp": "2025-12-02T08:59:33.109096+00:00", "meta": {"OBJECT_NAME": "COSMOS 2251 DEB", "OBJECT_ID": "1993-036SP", "EPOCH": "2025-12-02T01:23:14.486784", "MEAN_MOTION": 14.49330548, "ECCENTRICITY": 0.0051622, "INCLINATION": 74.0422, "RA_OF_ASC_NODE": 77.3124, "ARG_OF_PERICENTER": 217.6994, "MEAN_ANOMALY": 142.0545, "EPHEMERIS_TYPE": 0, "CLASSIFICATION_TYPE": "U", "NORAD_CAT_ID": 34446, "ELEMENT_SET_NO": 999, "REV_AT_EPOCH": 88539, "BSTAR": 0.00020384, "MEAN_MOTION_DOT": 7.63e-06, "MEAN_MOTION_DDOT": 0}, "tle": {"line1": "1 34446U 93036SP  25336.05780656  .00000763  00000+0  20384-3 0  9993", "line2": "2 34446  74.0422  77.3124 0051622 217.6994 142.0545 14.49330548885395"}}, "geometry": {"type": "Point", "coordinates": [-93.34194764111739, -31.100313350111914]}}, {"type": "Feature", "properties": {"norad_id": 34449, "name": "COSMOS 2251 DEB", "group": "cosmos-2251-debris", "lat": 55.33962145024066, "lon": -113.0215904082491, "alt_km": 563.9642497290279, "timestamp": "2025-12-02T08:59:33.109106+00:00", "meta": {"OBJECT_NAME": "COSMOS 2251 DEB", "OBJECT_ID": "1993-036SS", "EPOCH": "2025-12-01T10:14:30.724800", "MEAN_MOTION": 14.93704956, "ECCENTRICITY": 0.00253125, "INCLINATION": 74.031, "RA_OF_ASC_NODE": 93.3525, "ARG_OF_PERICENTER": 143.3895, "MEAN_ANOMALY": 282.4195, "EPHEMERIS_TYPE": 0, "CLASSIFICATION_TYPE": "U", "NORAD_CAT_ID": 34449, "ELEMENT_SET_NO": 999, "REV_AT_EPOCH": 88524, "BSTAR": 0.004410154, "MEAN_MOTION_DOT": 0.00047248, "MEAN_MOTION_DDOT": 0}, "tle": {"line1": "1 34449U 93036SS  25335.42674450  .00047248  00000+0  44102-2 0  9992", "line2": "2 34449  74.0310  93.3525 0025312 143.3895 282.4195 14.93704956885240"}}, "geometry": {"type": "Point", "coordinates": [-113.0215904082491, 55.33962145024066]}}, {"type": "Feature", "properties": {"norad_id": 34451, "name": "COSMOS 2251 DEB", "group": "cosmos-2251-debris", "lat": 61.35741142670765, "lon": 140.3493435468246, "alt_km": 571.306085354764, "timestamp": "2025-12-02T08:59:33.109116+00:00", "meta": {"OBJECT_NAME": "COSMOS 2251 DEB", "OBJECT_ID": "1993-036SU", "EPOCH": "2025-12-01T10:12:21.575808", "MEAN_MOTION": 14.94430913, "ECCENTRICITY": 0.00261559, "INCLINATION": 74.0447, "RA_OF_ASC_NODE": 110.6723, "ARG_OF_PERICENTER": 138.0898, "MEAN_ANOMALY": 222.2295, "EPHEMERIS_TYPE": 0, "CLASSIFICATION_TYPE": "U", "NORAD_CAT_ID": 34451, "ELEMENT_SET_NO": 999, "REV_AT_EPOCH": 88466, "BSTAR": 0.0039254873, "MEAN_MOTION_DOT": 0.00042825, "MEAN_MOTION_DDOT": 0}, "tle": {"line1": "1 34451U 93036SU  25335.42524972  .00042825  00000+0  39255-2 0  9997", "line2": "2 34451  74.0447 110.6723 0026155 138.0898 222.2295 14.94430913884665"}}, "geometry": {"type": "Point", "coordinates": [140.3493435468246, 61.35741142670765]}}, {"type": "Feature", "properties": {"norad_id": 34452, "name": "COSMOS 2251 DEB", "group": "cosmos-2251-debris", "lat": -73.1123336844152, "lon": 94.81638350780831, "alt_km": 495.0900911433373, "timestamp": "2025-12-02T08:59:33.109126+00:00", "meta": {"OBJECT_NAME": "COSMOS 2251 DEB", "OBJECT_ID": "1993-036SV", "EPOCH": "2025-12-02T02:08:14.097984", "MEAN_MOTION": 15.11237153, "ECCENTRICITY": 0.006742, "INCLINATION": 74.0357, "RA_OF_ASC_NODE": 204.8534, "ARG_OF_PERICENTER": 283.4446, "MEAN_ANOMALY": 227.9055, "EPHEMERIS_TYPE": 0, "CLASSIFICATION_TYPE": "U", "NORAD_CAT_ID": 34452, "ELEMENT_SET_NO": 999, "REV_AT_EPOCH": 90501, "BSTAR": 0.00092793, "MEAN_MOTION_DOT": 0.00016471, "MEAN_MOTION_DDOT": 0}, "tle": {"line1": "1 34452U 93036SV  25336.08905206  .00016471  00000+0  92793-3 0  9999", "line2": "2 34452  74.0357 204.8534 0067420 283.4446 227.9055 15.11237153905016"}}, "geometry": {"type": "Point", "coordinates": [94.81638350780831, -73.1123336844152]}}, {"type": "Feature", "properties": {"norad_id": 34453, "name": "COSMOS 2251 DEB", "group": "cosmos-2251-debris", "lat": 10.235339158332698, "lon": -60.481689128566586, "alt_km": 412.80448795139546, "timestamp": "2025-12-02T08:59:33.109137+00:00", "meta": {"OBJECT_NAME": "COSMOS 2251 DEB", "OBJECT_ID": "1993-036SW", "EPOCH": "2025-12-02T03:38:12.249024", "MEAN_MOTION": 15.55399632, "ECCENTRICITY": 0.0016853, "INCLINATION": 74.1185, "RA_OF_ASC_NODE": 122.9561, "ARG_OF_PERICENTER": 354.2986, "MEAN_ANOMALY": 5.8035, "EPHEMERIS_TYPE": 0, "CLASSIFICATION_TYPE": "U", "NORAD_CAT_ID": 34453, "ELEMENT_SET_NO": 999, "REV_AT_EPOCH": 88701, "BSTAR": 0.0099765, "MEAN_MOTION_DOT": 0.0074933, "MEAN_MOTION_DDOT": 0}, "tle": {"line1": "1 34453U 93036SW  25336.15153066  .00749330  00000+0  99765-2 0  9999", "line2": "2 34453  74.1185 122.9561 0016853 354.2986   5.8035 15.55399632887016"}}, "geometry": {"type": "Point", "coordinates": [-60.481689128566586, 10.235339158332698]}}, {"type": "Feature", "properties": {"norad_id": 34454, "name": "COSMOS 2251 DEB", "group": "cosmos-2251-debris", "lat": 48.91293235223313, "lon": 97.59089024496681, "alt_km": 772.7387462769229, "timestamp": "2025-12-02T08:59:33.109147+00:00", "meta": {"OBJECT_NAME": "COSMOS 2251 DEB", "OBJECT_ID": "1993-036SX", "EPOCH": "2025-12-02T03:23:36.811392", "MEAN_MOTION": 14.38777645, "ECCENTRICITY": 0.003514, "INCLINATION": 74.0585, "RA_OF_ASC_NODE": 297.1555, "ARG_OF_PERICENTER": 2.0172, "MEAN_ANOMALY": 358.1117, "EPHEMERIS_TYPE": 0, "CLASSIFICATION_TYPE": "U", "NORAD_CAT_ID": 34454, "ELEMENT_SET_NO": 999, "REV_AT_EPOCH": 87915, "BSTAR": 0.00032614, "MEAN_MOTION_DOT": 9.83e-06, "MEAN_MOTION_DDOT": 0}, "tle": {"line1": "1 34454U 93036SX  25336.14139828  .00000983  00000+0  32614-3 0  9994", "line2": "2 34454  74.0585 297.1555 0035140   2.0172 358.1117 14.38777645879158"}}, "geometry": {"type": "Point", "coordinates": [97.59089024496681, 48.91293235223313]}}, {"type": "Feature", "properties": {"norad_id": 34459, "name": "COSMOS 2251 DEB", "group": "cosmos-2251-debris", "lat": 59.70822894365942, "lon": 62.71346827067854, "alt_km": 977.8323281500961, "timestamp": "2025-12-02T08:59:33.109157+00:00", "meta": {"OBJECT_NAME": "COSMOS 2251 DEB", "OBJECT_ID": "1993-036TC", "EPOCH": "2025-12-01T20:26:41.410752", "MEAN_MOTION": 14.00463848, "ECCENTRICITY": 0.0191841, "INCLINATION": 74.0791, "RA_OF_ASC_NODE": 272.8664, "ARG_OF_PERICENTER": 345.1217, "MEAN_ANOMALY": 14.4317, "EPHEMERIS_TYPE": 0, "CLASSIFICATION_TYPE": "U", "NORAD_CAT_ID": 34459, "ELEMENT_SET_NO": 999, "REV_AT_EPOCH": 85559, "BSTAR": 0.00064506, "MEAN_MOTION_DOT": 1.098e-05, "MEAN_MOTION_DDOT": 0}, "tle": {"line1": "1 34459U 93036TC  25335.85186818  .00001098  00000+0  64506-3 0  9990", "line2": "2 34459  74.0791 272.8664 0191841 345.1217  14.4317 14.00463848855597"}}, "geometry": {"type": "Point", "coordinates": [62.71346827067854, 59.70822894365942]}}]}